{
  "type": "FeatureCollection",
  "features": [
    {
      "type": "Feature",
      "properties": {
        "norad_id": 40938,
        "name": "BEIDOU-3S IGSO-2S (C56)",
        "group": "beidou",
        "lat": -14.44576155550115,
        "lon": 93.70601561471115,
        "alt_km": 35535.560036510935,
        "timestamp": "2025-12-10T18:57:00.330476+00:00",
        "meta_object_name": "BEIDOU-3S IGSO-2S (C56)",
        "meta_object_id": "2015-053A",
        "meta_epoch": "2025-12-09T17:40:38.610336",
        "meta_mean_motion": 1.00270089,
        "meta_eccentricity": 0.00610607,
        "meta_inclination": 49.5164,
        "meta_ra_of_asc_node": 261.0407,
        "meta_arg_of_pericenter": 188.3574,
        "meta_mean_anomaly": 350.535,
        "meta_ephemeris_type": 0,
        "meta_classification_type": "U",
        "meta_norad_cat_id": 40938,
        "meta_element_set_no": 999,
        "meta_rev_at_epoch": 3745,
        "meta_bstar": 0,
        "meta_mean_motion_dot": -1.49e-06,
        "meta_mean_motion_ddot": 0,
        "tle_line1": "1 40938U 15053A   25343.73655799 -.00000149  00000+0  00000+0 0  9999",
        "tle_line2": "2 40938  49.5164 261.0407 0061060 188.3574 350.5350  1.00270089 37451"
      },
      "geometry": {
        "type": "Point",
        "coordinates": [
          93.70601561471115,
          -14.44576155550115
        ]
      }
    },
    {
      "type": "Feature",
      "properties": {
        "norad_id": 41434,
        "name": "BEIDOU-2 IGSO-6 (C13)",
        "group": "beidou",
        "lat": 46.4142187526718,
        "lon": 77.3348294958838,
        "alt_km": 36025.18666048309,
        "timestamp": "2025-12-10T18:57:00.330489+00:00",
        "meta_object_name": "BEIDOU-2 IGSO-6 (C13)",
        "meta_object_id": "2016-021A",
        "meta_epoch": "2025-12-03T15:53:57.382080",
        "meta_mean_motion": 1.00293531,
        "meta_eccentricity": 0.00596341,
        "meta_inclination": 59.9536,
        "meta_ra_of_asc_node": 39.991,
        "meta_arg_of_pericenter": 228.541,
        "meta_mean_anomaly": 135.1173,
        "meta_ephemeris_type": 0,
        "meta_classification_type": "U",
        "meta_norad_cat_id": 41434,
        "meta_element_set_no": 999,
        "meta_rev_at_epoch": 3552,
        "meta_bstar": 0,
        "meta_mean_motion_dot": -1.61e-06,
        "meta_mean_motion_ddot": 0,
        "tle_line1": "1 41434U 16021A   25337.66246970 -.00000161  00000+0  00000+0 0  9993",
        "tle_line2": "2 41434  59.9536  39.9910 0059634 228.5410 135.1173  1.00293531 35525"
      },
      "geometry": {
        "type": "Point",
        "coordinates": [
          77.3348294958838,
          46.4142187526718
        ]
      }
    },
    {
      "type": "Feature",
      "properties": {
        "norad_id": 41586,
        "name": "BEIDOU-2 G7 (C03)",
        "group": "beidou",
        "lat": 1.2911629993109568,
        "lon": 114.47989194501513,
        "alt_km": 35774.117106918224,
        "timestamp": "2025-12-10T18:57:00.330502+00:00",
        "meta_object_name": "BEIDOU-2 G7 (C03)",
        "meta_object_id": "2016-037A",
        "meta_epoch": "2025-12-09T22:02:38.709312",
        "meta_mean_motion": 1.00268364,
        "meta_eccentricity": 0.00043475,
        "meta_inclination": 1.7501,
        "meta_ra_of_asc_node": 67.7122,
        "meta_arg_of_pericenter": 1.1282,
        "meta_mean_anomaly": 91.1817,
        "meta_ephemeris_type": 0,
        "meta_classification_type": "U",
        "meta_norad_cat_id": 41586,
        "meta_element_set_no": 999,
        "meta_rev_at_epoch": 499,
        "meta_bstar": 0,
        "meta_mean_motion_dot": -3.5e-06,
        "meta_mean_motion_ddot": 0,
        "tle_line1": "1 41586U 16037A   25343.91850358 -.00000350  00000+0  00000+0 0  9994",
        "tle_line2": "2 41586   1.7501  67.7122 0004347   1.1282  91.1817  1.00268364  4996"
      },
      "geometry": {
        "type": "Point",
        "coordinates": [
          114.47989194501513,
          1.2911629993109568
        ]
      }
    },
    {
      "type": "Feature",
      "properties": {
        "norad_id": 43001,
        "name": "BEIDOU-3 M1 (C19)",
        "group": "beidou",
        "lat": 56.300586656645294,
        "lon": 151.52990464484816,
        "alt_km": 21541.362455936855,
        "timestamp": "2025-12-10T18:57:00.330514+00:00",
        "meta_object_name": "BEIDOU-3 M1 (C19)",
        "meta_object_id": "2017-069A",
        "meta_epoch": "2025-12-09T14:06:31.411584",
        "meta_mean_motion": 1.8623096,
        "meta_eccentricity": 0.0009028,
        "meta_inclination": 56.5248,
        "meta_ra_of_asc_node": 69.3379,
        "meta_arg_of_pericenter": 303.8833,
        "meta_mean_anomaly": 56.0533,
        "meta_ephemeris_type": 0,
        "meta_classification_type": "U",
        "meta_norad_cat_id": 43001,
        "meta_element_set_no": 999,
        "meta_rev_at_epoch": 5507,
        "meta_bstar": 0,
        "meta_mean_motion_dot": -4.9e-07,
        "meta_mean_motion_ddot": 0,
        "tle_line1": "1 43001U 17069A   25343.58786356 -.00000049  00000+0  00000+0 0  9998",
        "tle_line2": "2 43001  56.5248  69.3379 0009028 303.8833  56.0533  1.86230960 55078"
      },
      "geometry": {
        "type": "Point",
        "coordinates": [
          151.52990464484816,
          56.300586656645294
        ]
      }
    },
    {
      "type": "Feature",
      "properties": {
        "norad_id": 43002,
        "name": "BEIDOU-3 M2 (C20)",
        "group": "beidou",
        "lat": 41.745440689448586,
        "lon": -146.7918162757597,
        "alt_km": 21538.811274591124,
        "timestamp": "2025-12-10T18:57:00.330525+00:00",
        "meta_object_name": "BEIDOU-3 M2 (C20)",
        "meta_object_id": "2017-069B",
        "meta_epoch": "2025-12-09T12:37:45.819264",
        "meta_mean_motion": 1.8623055,
        "meta_eccentricity": 0.0006254,
        "meta_inclination": 56.5238,
        "meta_ra_of_asc_node": 69.3764,
        "meta_arg_of_pericenter": 332.6094,
        "meta_mean_anomaly": 27.38,
        "meta_ephemeris_type": 0,
        "meta_classification_type": "U",
        "meta_norad_cat_id": 43002,
        "meta_element_set_no": 999,
        "meta_rev_at_epoch": 5506,
        "meta_bstar": 0,
        "meta_mean_motion_dot": -4.8e-07,
        "meta_mean_motion_ddot": 0,
        "tle_line1": "1 43002U 17069B   25343.52622476 -.00000048  00000+0  00000+0 0  9994",
        "tle_line2": "2 43002  56.5238  69.3764 0006254 332.6094  27.3800  1.86230550 55065"
      },
      "geometry": {
        "type": "Point",
        "coordinates": [
          -146.7918162757597,
          41.745440689448586
        ]
      }
    },
    {
      "type": "Feature",
      "properties": {
        "norad_id": 43107,
        "name": "BEIDOU-3 M7 (C27)",
        "group": "beidou",
        "lat": -45.22718879400034,
        "lon": -97.10701740696169,
        "alt_km": 21537.936428269153,
        "timestamp": "2025-12-10T18:57:00.330536+00:00",
        "meta_object_name": "BEIDOU-3 M7 (C27)",
        "meta_object_id": "2018-003A",
        "meta_epoch": "2025-12-10T08:14:11.609952",
        "meta_mean_motion": 1.86232173,
        "meta_eccentricity": 0.0002608,
        "meta_inclination": 54.4988,
        "meta_ra_of_asc_node": 308.8983,
        "meta_arg_of_pericenter": 70.7786,
        "meta_mean_anomaly": 289.2405,
        "meta_ephemeris_type": 0,
        "meta_classification_type": "U",
        "meta_norad_cat_id": 43107,
        "meta_element_set_no": 999,
        "meta_rev_at_epoch": 5383,
        "meta_bstar": 0,
        "meta_mean_motion_dot": -8.2e-07,
        "meta_mean_motion_ddot": 0,
        "tle_line1": "1 43107U 18003A   25344.34318993 -.00000082  00000+0  00000+0 0  9994",
        "tle_line2": "2 43107  54.4988 308.8983 0002608  70.7786 289.2405  1.86232173 53837"
      },
      "geometry": {
        "type": "Point",
        "coordinates": [
          -97.10701740696169,
          -45.22718879400034
        ]
      }
    },
    {
      "type": "Feature",
      "properties": {
        "norad_id": 43108,
        "name": "BEIDOU-3 M8 (C28)",
        "group": "beidou",
        "lat": -19.149740068996422,
        "lon": -65.49746936874081,
        "alt_km": 21524.543704160147,
        "timestamp": "2025-12-10T18:57:00.330547+00:00",
        "meta_object_name": "BEIDOU-3 M8 (C28)",
        "meta_object_id": "2018-003B",
        "meta_epoch": "2025-12-09T05:08:23.746272",
        "meta_mean_motion": 1.86230654,
        "meta_eccentricity": 0.00048225,
        "meta_inclination": 54.4927,
        "meta_ra_of_asc_node": 308.9205,
        "meta_arg_of_pericenter": 273.4107,
        "meta_mean_anomaly": 86.5234,
        "meta_ephemeris_type": 0,
        "meta_classification_type": "U",
        "meta_norad_cat_id": 43108,
        "meta_element_set_no": 999,
        "meta_rev_at_epoch": 5382,
        "meta_bstar": 0,
        "meta_mean_motion_dot": -7.7e-07,
        "meta_mean_motion_ddot": 0,
        "tle_line1": "1 43108U 18003B   25343.21416373 -.00000077  00000+0  00000+0 0  9995",
        "tle_line2": "2 43108  54.4927 308.9205 0004822 273.4107  86.5234  1.86230654 53827"
      },
      "geometry": {
        "type": "Point",
        "coordinates": [
          -65.49746936874081,
          -19.149740068996422
        ]
      }
    }
  ]
}